FLOCK 4A-15             
1 44100U 19018Y   21030.44193799  .00002029  00000+0  86523-4 0  9990
2 44100  97.3821  94.2795 0013046 103.9850 256.2839 15.24009549101980
FLOCK 4A-14             
1 44101U 19018Z   21030.62048632  .00000641  00000+0  29384-4 0  9996
2 44101  97.3824  94.6137 0013011 105.1526 255.1151 15.23925751102026
FLOCK 4A-13             
1 44102U 19018AA  21030.45121647  .00002286  00000+0  97073-4 0  9993
2 44102  97.3819  94.2390 0013499 105.2953 254.9777 15.24008837101986
FLOCK 4P-9              
1 44807U 19081D   21030.39586933  .00000963  00000+0  46827-4 0  9992
2 44807  97.4676  95.5047 0013591 180.2758 179.8472 15.20768722 65340
FLOCK 4P-10             
1 44808U 19081E   21030.25836428  .00001072  00000+0  51781-4 0  9992
2 44808  97.4678  95.3972 0013533 180.7927 179.3289 15.20759182 65326
FLOCK 4P-11             
1 44809U 19081F   21030.44375880  .00001086  00000+0  52338-4 0  9998
2 44809  97.4677  95.5954 0013533 180.6845 179.4374 15.20789342 65356
FLOCK 4P-12             
1 44810U 19081G   21030.43788586  .00001161  00000+0  55759-4 0  9994
2 44810  97.4679  95.6170 0013219 180.2590 179.8640 15.20776774 65350
FLOCK 4P-4              
1 44811U 19081H   21030.41440555  .00001182  00000+0  56752-4 0  9991
2 44811  97.4707  95.7357 0012651 170.0622 190.0866 15.20763413 65354
FLOCK 4P-3              
1 44812U 19081J   21030.14525436  .00001462  00000+0  69439-4 0  9991
2 44812  97.4705  95.4809 0012446 170.5813 189.5658 15.20774222 65319
FLOCK 4P-2              
1 44813U 19081K   21030.42610940  .00001025  00000+0  49621-4 0  9994
2 44813  97.4688  95.6755 0012264 170.7008 189.4457 15.20775420 65359
FLOCK 4P-1              
1 44814U 19081L   21030.55181330  .00001141  00000+0  54910-4 0  9991
2 44814  97.4687  95.8115 0012204 170.1530 189.9947 15.20768351 65375
FLOCK 4P-7              
1 44816U 19081N   21030.59974442  .00000988  00000+0  47962-4 0  9998
2 44816  97.4686  95.8948 0011709 170.8598 189.2853 15.20769293 65386
FLOCK 4P-6              
1 44817U 19081P   21030.43255847  .00002091  00000+0  97944-4 0  9995
2 44817  97.4684  95.8011 0011414 171.5032 188.6399 15.20782758 65367
FLOCK 4P-5              
1 44818U 19081Q   21030.45035384  .00001082  00000+0  52220-4 0  9997
2 44818  97.4686  95.7904 0011238 172.7196 187.4205 15.20774714 65364
SKYSAT-C14              
1 45788U 20038BL  21030.45319951  .00004034  00000+0  63741-4 0  9993
2 45788  52.9982 253.7243 0007613 349.6361  10.4491 15.56043237 36222
SKYSAT-C16              
1 45789U 20038BM  21030.53549125  .00004143  00000+0  64948-4 0  9992
2 45789  52.9985 252.8217 0009083 343.1902  16.8806 15.56178278 36235
SKYSAT-C15              
1 45790U 20038BN  21029.91360896  .00004394  00000+0  68653-4 0  9995
2 45790  52.9975 256.0399 0003424 339.8172  20.2702 15.56107611 36133
SKYSAT-C17              
1 46179U 20057BQ  21030.29960047  .00005245  00000+0  78497-4 0  9998
2 46179  53.0002 347.0145 0008094 267.7417  92.2666 15.56833552 26796
SKYSAT-C18              
1 46180U 20057BR  21030.57862540  .00006967  00000+0  93326-4 0  9990
2 46180  52.9968 347.2763 0012225 126.6132 233.6005 15.59218270 25528
SKYSAT-C19              
1 46235U 20057BS  21030.27359775  .00006335  00000+0  91975-4 0  9996
2 46235  52.9971 346.0736 0005904 283.2201  76.8150 15.57259297 25512
FLOCK 4V-9              
1 46282U 20061L   21030.44809681  .00001310  00000+0  84114-4 0  9993
2 46282  97.5033 106.6436 0003897 171.3625 188.7672 15.10174788 22510
FLOCK 4V-12             
1 46283U 20061M   21030.44397582  .00001196  00000+0  77030-4 0  9997
2 46283  97.5040 106.6556 0003915 170.1132 190.0175 15.10214991 22518
FLOCK 4V-11             
1 46285U 20061P   21030.44430767  .00000973  00000+0  63411-4 0  9992
2 46285  97.5034 106.6552 0003918 168.3401 191.7920 15.10212042 22511
FLOCK 4V-14             
1 46286U 20061Q   21030.44203391  .00000982  00000+0  63901-4 0  9998
2 46286  97.5033 106.6567 0003909 168.0444 192.0879 15.10241348 22519
FLOCK 4V-8              
1 46288U 20061S   21030.43764680  .00001448  00000+0  92282-4 0  9994
2 46288  97.5035 106.6594 0002699 173.1428 186.9839 15.10281694 22423
FLOCK 4V-6              
1 46289U 20061T   21030.23585638  .00001281  00000+0  82021-4 0  9992
2 46289  97.5032 106.4723 0002712 171.0366 189.0913 15.10295791 22483
FLOCK 4V-5              
1 46290U 20061U   21030.16793428  .00001481  00000+0  94210-4 0  9999
2 46290  97.5030 106.4054 0002677 171.2535 188.8741 15.10323550 22470
FLOCK 4V-7              
1 46291U 20061V   21030.43188006  .00001505  00000+0  95597-4 0  9996
2 46291  97.5032 106.6704 0002614 169.6396 190.4888 15.10343450 22409
FLOCK 4V-10             
1 46296U 20061AA  21030.45848532  .00000480  00000+0  32849-4 0  9992
2 46296  97.5037 106.7909 0002166 116.5969 243.5483 15.10633164 22489
FLOCK 4V-13             
1 46297U 20061AB  21030.45634640  .00000265  00000+0  19820-4 0  9991
2 46297  97.5037 106.7921 0002240 114.6717 245.4746 15.10632382 22469
FLOCK 4V-1              
1 46313U 20061AT  21030.48461878  .00000838  00000+0  53818-4 0  9995
2 46313  97.5036 106.9057 0004610 112.7978 247.3740 15.11111077 22481
FLOCK 4V-4              
1 46314U 20061AU  21030.21710193  .00000783  00000+0  50554-4 0  9997
2 46314  97.5036 106.6479 0004849 110.0105 250.1647 15.11083051 22493
FLOCK 4V-2              
1 46321U 20061BB  21030.15488044  .00001407  00000+0  87689-4 0  9998
2 46321  97.5040 106.5843 0004846 113.4390 246.7350 15.11144135 22369
FLOCK 4V-3              
1 46322U 20061BC  21030.48246545  .00000717  00000+0  46601-4 0  9995
2 46322  97.5034 106.9064 0004657 110.1232 250.0499 15.11086307 22493
FLOCK 4V-16             
1 46527U 20061BD  21030.17210187  .00001725  00000+0  95990-4 0  9996
2 46527  97.4554 106.4721 0010288  74.9210 285.3159 15.14930141 18598
FLOCK 4V-15             
1 46528U 20061BE  21030.44606841  .00000751  00000+0  42213-4 0  9991
2 46528  97.4512 106.9561 0004634 100.8734 259.3020 15.16283507 18999
FLOCK 4V-17             
1 46529U 20061BF  21030.46136423  .00001176  00000+0  64385-4 0  9994
2 46529  97.4483 106.8941 0004730  89.6913 270.4862 15.16162194 18196
FLOCK 4V-21             
1 46596U 20061BK  21030.15320304  .00001563  00000+0  84892-4 0  9992
2 46596  97.4465 106.5213 0005680  72.7146 287.4708 15.15955432 16307
FLOCK 4V-18             
1 46597U 20061BG  21030.47458779  .00001886  00000+0  10367-3 0  9999
2 46597  97.4589 106.8826 0009118  81.1049 279.1215 15.15262405 17576
FLOCK 4V-19             
1 46609U 20061BH  21030.47085863  .00001838  00000+0  98664-4 0  9997
2 46609  97.4468 106.8663 0005021  74.8104 285.3684 15.16160950 17128
FLOCK 4V-20             
1 46612U 20061BJ  21030.48228596  .00002056  00000+0  11308-3 0  9996
2 46612  97.4576 106.8496 0009550  85.2299 275.0023 15.15141887 16644
FLOCK 4V-22             
1 46735U 20061BL  21030.24810309  .00002982  00000+0  16027-3 0  9996
2 46735  97.4442 106.4997 0007849  75.8070 284.4023 15.15629923 15437
FLOCK 4V-23             
1 46737U 20061BM  21030.15820767  .00001812  00000+0  97985-4 0  9991
2 46737  97.4479 106.5405 0006214  69.9227 290.2674 15.15925194 15354
FLOCK 4V-24             
1 46738U 20061BN  21030.47597367  .00002828  00000+0  15405-3 0  9998
2 46738  97.4615 106.8685 0008447  90.8696 269.3499 15.15188873 14988
FLOCK 4V-25             
1 46812U 20061BP  21030.48061273  .00002901  00000+0  15389-3 0  9997
2 46812  97.4491 106.8755 0006966  58.7671 301.4245 15.16124843 14616
FLOCK 4E'-1             
1 46813U 20077A   21030.55425839  .00003108  00000+0  16549-3 0  9994
2 46813  97.4888  95.7642 0012954  12.7261  94.6113 15.15901524 14182
FLOCK 4E'-7             
1 46814U 20077B   21030.53905788  .00002877  00000+0  15225-3 0  9991
2 46814  97.4886  95.7846 0013852   8.2358  98.9808 15.16164839 14181
FLOCK 4E'-9             
1 46815U 20077C   21030.52791745  .00003127  00000+0  16434-3 0  9999
2 46815  97.4856  95.7537 0012542   5.7354 104.5800 15.16361770 14188
FLOCK 4E'-8             
1 46816U 20077D   21030.51661347  .00003145  00000+0  16452-3 0  9993
2 46816  97.4901  95.8388 0010849   1.2144 107.1876 15.16537040 14188
FLOCK 4E'-5             
1 46817U 20077E   21030.54878065  .00002268  00000+0  11780-3 0  9998
2 46817  97.4902  95.9444 0014711 352.6109 112.9391 15.17038719 14197
FLOCK 4E'-3             
1 46819U 20077G   21030.53193345  .00001573  00000+0  82309-4 0  9994
2 46819  97.4881  95.9345 0015326 346.6173 120.4164 15.17222032 14197
FLOCK 4E'-2             
1 46820U 20077H   21030.51620271  .00002495  00000+0  12773-3 0  9998
2 46820  97.4928  96.0205 0013659 338.2500 133.8239 15.17479820 14196
FLOCK 4E'-4             
1 46821U 20077J   21030.50679084  .00001419  00000+0  73672-4 0  9995
2 46821  97.4889  95.9876 0014197 335.2295 156.0237 15.17675987 14154
FLOCK 4E'-6             
1 46822U 20077K   21030.51745756  .00002771  00000+0  14248-3 0  9992
2 46822  97.4848  95.8492 0012753 345.2908  14.7954 15.17236038 14191
FLOCK 4V-26             
1 46825U 20061BQ  21030.47570721  .00002844  00000+0  15506-3 0  9990
2 46825  97.4611 106.8614 0007961  94.5347 265.6793 15.15162480 14170
